NUSAT-50 (NANCY ROMAN)  
1 60493U 24149AB  26068.80227738  .00012094  00000+0  42252-3 0  9994
2 60493  97.3817 150.7693 0002523 238.0469 122.0527 15.29713355 86930
STARLINK-34193          
1 64011U 25101T   26068.17524873  .00029014  00000+0  10599-2 0  9991
2 64011  43.0022   1.1202 0001681 295.0137  65.0540 15.27573864 46978
